ATLAS CENTAUR R/B       
1 06155U 72065B   26076.59875274  .00001190  00000+0  16529-3 0  9991
2 06155  35.0007 259.4027 0032897  76.2465 284.1894 14.77709442842434
SL-8 R/B                
1 08459U 75112B   26076.85018304  .00000217  00000+0  79840-4 0  9993
2 08459  74.0636   3.9016 0014444  93.7375 266.5431 14.38208590633047
SL-3 R/B                
1 10114U 77057B   26076.81163022  .00010726  00000+0  22372-3 0  9991
2 10114  97.5774 249.0922 0006185 250.0342 110.0240 15.45728680669580
SEASAT 1                
1 10967U 78064A   26076.45090225  .00000216  00000+0  98810-4 0  9994
2 10967 108.0094 141.7854 0002427 282.5079  77.5795 14.46166669507635
SL-14 R/B               
1 11267U 79011B   26076.49470578  .00000573  00000+0  54023-4 0  9992
2 11267  82.5203  89.1622 0016945  36.2627 323.9737 14.91917902529944
SL-8 R/B                
1 11574U 79089B   26076.44438605  .00000284  00000+0  93744-4 0  9990
2 11574  74.0669  76.6869 0017059 248.5201 111.4136 14.42356075437220
SL-14 R/B               
1 11672U 80005B   26076.57998190  .00000509  00000+0  48885-4 0  9999
2 11672  82.5130 299.7511 0016805 133.3015 226.9609 14.90939271477667
SL-8 R/B                
1 12139U 81003B   26076.81460563  .00019038  00000+0  48385-3 0  9993
2 12139  82.9366 282.5102 0261463 150.3218 211.3149 15.11321088315903
SL-3 R/B                
1 12465U 81046B   26076.83044269  .00008868  00000+0  20468-3 0  9996
2 12465  81.2283 279.9667 0018910 354.0243   6.0771 15.42200161439683
SL-3 R/B                
1 12904U 81103B   26076.79599639  .00004093  00000+0  18063-3 0  9993
2 12904  81.1600 203.9229 0012445 257.5469 102.4370 15.21476608974462
SL-3 R/B                
1 13068U 82013B   26076.80074177  .00003608  00000+0  15537-3 0  9997
2 13068  81.1758 151.2649 0023093 150.4223 209.8321 15.22095613405583
SL-3 R/B                
1 13154U 82039B   26076.80687825  .00002106  00000+0  12653-3 0  9999
2 13154  81.1579 206.6031 0029334 297.8731  61.9524 15.10128292382868
