CCSDS_OMM_VERS = 2.0
CREATION_DATE  = 
ORIGINATOR     = 

OBJECT_NAME    = ATLAS CENTAUR R/B
OBJECT_ID      = 1972-065B
CENTER_NAME    = EARTH
REF_FRAME      = TEME
TIME_SYSTEM    = UTC
MEAN_ELEMENT_THEORY = SGP/SGP4

EPOCH          = 2026-03-17T14:22:12.236736
MEAN_MOTION    = 14.77709442
ECCENTRICITY   = .00328975
INCLINATION    = 35.0007
RA_OF_ASC_NODE = 259.4027
ARG_OF_PERICENTER = 76.2465
MEAN_ANOMALY   = 284.1894

EPHEMERIS_TYPE = 0
CLASSIFICATION_TYPE = U
NORAD_CAT_ID   = 6155
ELEMENT_SET_NO = 999
REV_AT_EPOCH   = 84243
BSTAR          = .16529246E-3
MEAN_MOTION_DOT = .119E-4
MEAN_MOTION_DDOT = 0

CCSDS_OMM_VERS = 2.0
CREATION_DATE  = 
ORIGINATOR     = 

OBJECT_NAME    = SL-8 R/B
OBJECT_ID      = 1975-112B
CENTER_NAME    = EARTH
REF_FRAME      = TEME
TIME_SYSTEM    = UTC
MEAN_ELEMENT_THEORY = SGP/SGP4

EPOCH          = 2026-03-17T20:24:15.814656
MEAN_MOTION    = 14.38208590
ECCENTRICITY   = .0014444
INCLINATION    = 74.0636
RA_OF_ASC_NODE = 3.9016
ARG_OF_PERICENTER = 93.7375
MEAN_ANOMALY   = 266.5431

EPHEMERIS_TYPE = 0
CLASSIFICATION_TYPE = U
NORAD_CAT_ID   = 8459
ELEMENT_SET_NO = 999
REV_AT_EPOCH   = 63304
BSTAR          = .7984E-4
MEAN_MOTION_DOT = .217E-5
MEAN_MOTION_DDOT = 0

CCSDS_OMM_VERS = 2.0
CREATION_DATE  = 
ORIGINATOR     = 

OBJECT_NAME    = SL-3 R/B
OBJECT_ID      = 1977-057B
CENTER_NAME    = EARTH
REF_FRAME      = TEME
TIME_SYSTEM    = UTC
MEAN_ELEMENT_THEORY = SGP/SGP4

EPOCH          = 2026-03-17T19:28:44.851008
MEAN_MOTION    = 15.45728680
ECCENTRICITY   = .0006185
INCLINATION    = 97.5774
RA_OF_ASC_NODE = 249.0922
ARG_OF_PERICENTER = 250.0342
MEAN_ANOMALY   = 110.0240

EPHEMERIS_TYPE = 0
CLASSIFICATION_TYPE = U
NORAD_CAT_ID   = 10114
ELEMENT_SET_NO = 999
REV_AT_EPOCH   = 66958
BSTAR          = .22372E-3
MEAN_MOTION_DOT = .10726E-3
MEAN_MOTION_DDOT = 0

CCSDS_OMM_VERS = 2.0
CREATION_DATE  = 
ORIGINATOR     = 

OBJECT_NAME    = SEASAT 1
OBJECT_ID      = 1978-064A
CENTER_NAME    = EARTH
REF_FRAME      = TEME
TIME_SYSTEM    = UTC
MEAN_ELEMENT_THEORY = SGP/SGP4

EPOCH          = 2026-03-17T10:49:17.954400
MEAN_MOTION    = 14.46166669
ECCENTRICITY   = .00024277
INCLINATION    = 108.0094
RA_OF_ASC_NODE = 141.7854
ARG_OF_PERICENTER = 282.5079
MEAN_ANOMALY   = 77.5795

EPHEMERIS_TYPE = 0
CLASSIFICATION_TYPE = U
NORAD_CAT_ID   = 10967
ELEMENT_SET_NO = 999
REV_AT_EPOCH   = 50763
BSTAR          = .98809756E-4
MEAN_MOTION_DOT = .216E-5
MEAN_MOTION_DDOT = 0

CCSDS_OMM_VERS = 2.0
CREATION_DATE  = 
ORIGINATOR     = 

OBJECT_NAME    = SL-14 R/B
OBJECT_ID      = 1979-011B
CENTER_NAME    = EARTH
REF_FRAME      = TEME
TIME_SYSTEM    = UTC
MEAN_ELEMENT_THEORY = SGP/SGP4

EPOCH          = 2026-03-17T11:52:22.579392
MEAN_MOTION    = 14.91917902
ECCENTRICITY   = .00169457
INCLINATION    = 82.5203
RA_OF_ASC_NODE = 89.1622
ARG_OF_PERICENTER = 36.2627
MEAN_ANOMALY   = 323.9737

EPHEMERIS_TYPE = 0
CLASSIFICATION_TYPE = U
NORAD_CAT_ID   = 11267
ELEMENT_SET_NO = 999
REV_AT_EPOCH   = 52994
BSTAR          = .54023023E-4
MEAN_MOTION_DOT = .573E-5
MEAN_MOTION_DDOT = 0

CCSDS_OMM_VERS = 2.0
CREATION_DATE  = 
ORIGINATOR     = 

OBJECT_NAME    = SL-8 R/B
OBJECT_ID      = 1979-089B
CENTER_NAME    = EARTH
REF_FRAME      = TEME
TIME_SYSTEM    = UTC
MEAN_ELEMENT_THEORY = SGP/SGP4

EPOCH          = 2026-03-17T10:39:54.954720
MEAN_MOTION    = 14.42356075
ECCENTRICITY   = .00170593
INCLINATION    = 74.0669
RA_OF_ASC_NODE = 76.6869
ARG_OF_PERICENTER = 248.5201
MEAN_ANOMALY   = 111.4136

EPHEMERIS_TYPE = 0
CLASSIFICATION_TYPE = U
NORAD_CAT_ID   = 11574
ELEMENT_SET_NO = 999
REV_AT_EPOCH   = 43722
BSTAR          = .93744174E-4
MEAN_MOTION_DOT = .284E-5
MEAN_MOTION_DDOT = 0

CCSDS_OMM_VERS = 2.0
CREATION_DATE  = 
ORIGINATOR     = 

OBJECT_NAME    = SL-14 R/B
OBJECT_ID      = 1980-005B
CENTER_NAME    = EARTH
REF_FRAME      = TEME
TIME_SYSTEM    = UTC
MEAN_ELEMENT_THEORY = SGP/SGP4

EPOCH          = 2026-03-17T13:55:10.436160
MEAN_MOTION    = 14.90939271
ECCENTRICITY   = .00168058
INCLINATION    = 82.5130
RA_OF_ASC_NODE = 299.7511
ARG_OF_PERICENTER = 133.3015
MEAN_ANOMALY   = 226.9609

EPHEMERIS_TYPE = 0
CLASSIFICATION_TYPE = U
NORAD_CAT_ID   = 11672
ELEMENT_SET_NO = 999
REV_AT_EPOCH   = 47766
BSTAR          = .48884676E-4
MEAN_MOTION_DOT = .509E-5
MEAN_MOTION_DDOT = 0

CCSDS_OMM_VERS = 2.0
CREATION_DATE  = 
ORIGINATOR     = 

OBJECT_NAME    = SL-8 R/B
OBJECT_ID      = 1981-003B
CENTER_NAME    = EARTH
REF_FRAME      = TEME
TIME_SYSTEM    = UTC
MEAN_ELEMENT_THEORY = SGP/SGP4

EPOCH          = 2026-03-17T19:33:01.926432
MEAN_MOTION    = 15.11321088
ECCENTRICITY   = .0261463
INCLINATION    = 82.9366
RA_OF_ASC_NODE = 282.5102
ARG_OF_PERICENTER = 150.3218
MEAN_ANOMALY   = 211.3149

EPHEMERIS_TYPE = 0
CLASSIFICATION_TYPE = U
NORAD_CAT_ID   = 12139
ELEMENT_SET_NO = 999
REV_AT_EPOCH   = 31590
BSTAR          = .48385E-3
MEAN_MOTION_DOT = .19038E-3
MEAN_MOTION_DDOT = 0

CCSDS_OMM_VERS = 2.0
CREATION_DATE  = 
ORIGINATOR     = 

OBJECT_NAME    = SL-3 R/B
OBJECT_ID      = 1981-046B
CENTER_NAME    = EARTH
REF_FRAME      = TEME
TIME_SYSTEM    = UTC
MEAN_ELEMENT_THEORY = SGP/SGP4

EPOCH          = 2026-03-17T19:55:50.248416
MEAN_MOTION    = 15.42200161
ECCENTRICITY   = .001891
INCLINATION    = 81.2283
RA_OF_ASC_NODE = 279.9667
ARG_OF_PERICENTER = 354.0243
MEAN_ANOMALY   = 6.0771

EPHEMERIS_TYPE = 0
CLASSIFICATION_TYPE = U
NORAD_CAT_ID   = 12465
ELEMENT_SET_NO = 999
REV_AT_EPOCH   = 43968
BSTAR          = .20468E-3
MEAN_MOTION_DOT = .8868E-4
MEAN_MOTION_DDOT = 0

CCSDS_OMM_VERS = 2.0
CREATION_DATE  = 
ORIGINATOR     = 

OBJECT_NAME    = SL-3 R/B
OBJECT_ID      = 1981-103B
CENTER_NAME    = EARTH
REF_FRAME      = TEME
TIME_SYSTEM    = UTC
MEAN_ELEMENT_THEORY = SGP/SGP4

EPOCH          = 2026-03-17T19:06:14.088096
MEAN_MOTION    = 15.21476608
ECCENTRICITY   = .0012445
INCLINATION    = 81.1600
RA_OF_ASC_NODE = 203.9229
ARG_OF_PERICENTER = 257.5469
MEAN_ANOMALY   = 102.4370

EPHEMERIS_TYPE = 0
CLASSIFICATION_TYPE = U
NORAD_CAT_ID   = 12904
ELEMENT_SET_NO = 999
REV_AT_EPOCH   = 97446
BSTAR          = .18063E-3
MEAN_MOTION_DOT = .4093E-4
MEAN_MOTION_DDOT = 0

CCSDS_OMM_VERS = 2.0
CREATION_DATE  = 
ORIGINATOR     = 

OBJECT_NAME    = SL-3 R/B
OBJECT_ID      = 1982-013B
CENTER_NAME    = EARTH
REF_FRAME      = TEME
TIME_SYSTEM    = UTC
MEAN_ELEMENT_THEORY = SGP/SGP4

EPOCH          = 2026-03-17T19:13:04.088928
MEAN_MOTION    = 15.22095613
ECCENTRICITY   = .0023093
INCLINATION    = 81.1758
RA_OF_ASC_NODE = 151.2649
ARG_OF_PERICENTER = 150.4223
MEAN_ANOMALY   = 209.8321

EPHEMERIS_TYPE = 0
CLASSIFICATION_TYPE = U
NORAD_CAT_ID   = 13068
ELEMENT_SET_NO = 999
REV_AT_EPOCH   = 40558
BSTAR          = .15537E-3
MEAN_MOTION_DOT = .3608E-4
MEAN_MOTION_DDOT = 0

CCSDS_OMM_VERS = 2.0
CREATION_DATE  = 
ORIGINATOR     = 

OBJECT_NAME    = SL-3 R/B
OBJECT_ID      = 1982-039B
CENTER_NAME    = EARTH
REF_FRAME      = TEME
TIME_SYSTEM    = UTC
MEAN_ELEMENT_THEORY = SGP/SGP4

EPOCH          = 2026-03-17T19:21:54.280800
MEAN_MOTION    = 15.10128292
ECCENTRICITY   = .0029334
INCLINATION    = 81.1579
RA_OF_ASC_NODE = 206.6031
ARG_OF_PERICENTER = 297.8731
MEAN_ANOMALY   = 61.9524

EPHEMERIS_TYPE = 0
CLASSIFICATION_TYPE = U
NORAD_CAT_ID   = 13154
ELEMENT_SET_NO = 999
REV_AT_EPOCH   = 38286
BSTAR          = .12653E-3
MEAN_MOTION_DOT = .2106E-4
MEAN_MOTION_DDOT = 0

